{"type": "FeatureCollection", "features": [ {"type": "Feature", "properties": {"norad_id": 30546, "name": "FENGYUN 1C DEB", "group": "fengyun-1c-debris", "lat": -80.79842947655969, "lon": -66.60627253481412, "alt_km": 671.1591415264293, "timestamp": "2025-12-26T05:31:12.784607+00:00", "meta": {"OBJECT_NAME": "FENGYUN 1C DEB", "OBJECT_ID": "1999-025AKL", "EPOCH": "2025-12-25T13:54:15.269760", "MEAN_MOTION": 14.873432, "ECCENTRICITY": 0.009296, "INCLINATION": 98.9076, "RA_OF_ASC_NODE": 217.1571, "ARG_OF_PERICENTER": 121.5626, "MEAN_ANOMALY": 268.3629, "EPHEMERIS_TYPE": 0, "CLASSIFICATION_TYPE": "U", "NORAD_CAT_ID": 30546, "ELEMENT_SET_NO": 999, "REV_AT_EPOCH": 648, "BSTAR": 0.00083202, "MEAN_MOTION_DOT": 8.069e-05, "MEAN_MOTION_DDOT": 0}, "tle": {"line1": "1 30546U 99025AKL 25359.57934340  .00008069  00000+0  83202-3 0  9992", "line2": "2 30546  98.9076 217.1571 0092960 121.5626 268.3629 14.87343200  6488"}}, "geometry": {"type": "Point", "coordinates": [-66.60627253481412, -80.79842947655969]}}, {"type": "Feature", "properties": {"norad_id": 30547, "name": "FENGYUN 1C DEB", "group": "fengyun-1c-debris", "lat": 73.08978151735886, "lon": 54.741760986491656, "alt_km": 738.3136442493133, "timestamp": "2025-12-26T05:31:12.784617+00:00", "meta": {"OBJECT_NAME": "FENGYUN 1C DEB", "OBJECT_ID": "1999-025AKM", "EPOCH": "2025-12-25T19:18:01.154592", "MEAN_MOTION": 14.37771843, "ECCENTRICITY": 0.00957013, "INCLINATION": 98.9016, "RA_OF_ASC_NODE": 203.269, "ARG_OF_PERICENTER": 178.7302, "MEAN_ANOMALY": 243.8958, "EPHEMERIS_TYPE": 0, "CLASSIFICATION_TYPE": "U", "NORAD_CAT_ID": 30547, "ELEMENT_SET_NO": 999, "REV_AT_EPOCH": 98910, "BSTAR": 0.00025525253, "MEAN_MOTION_DOT": 7.61e-06, "MEAN_MOTION_DDOT": 0}, "tle": {"line1": "1 30547U 99025AKM 25359.80418003  .00000761  00000+0  25525-3 0  9997", "line2": "2 30547  98.9016 203.2690 0095701 178.7302 243.8958 14.37771843989107"}}, "geometry": {"type": "Point", "coordinates": [54.741760986491656, 73.08978151735886]}}, {"type": "Feature", "properties": {"norad_id": 30548, "name": "FENGYUN 1C DEB", "group": "fengyun-1c-debris", "lat": -16.149859915644033, "lon": 76.28827319824994, "alt_km": 815.9644049086928, "timestamp": "2025-12-26T05:31:12.784628+00:00", "meta": {"OBJECT_NAME": "FENGYUN 1C DEB", "OBJECT_ID": "1999-025AKN", "EPOCH": "2025-12-25T12:21:47.176704", "MEAN_MOTION": 14.26999076, "ECCENTRICITY": 0.0067663, "INCLINATION": 99.6818, "RA_OF_ASC_NODE": 258.3315, "ARG_OF_PERICENTER": 299.9173, "MEAN_ANOMALY": 186.65, "EPHEMERIS_TYPE": 0, "CLASSIFICATION_TYPE": "U", "NORAD_CAT_ID": 30548, "ELEMENT_SET_NO": 999, "REV_AT_EPOCH": 14277, "BSTAR": 0.0020682, "MEAN_MOTION_DOT": 5.106e-05, "MEAN_MOTION_DDOT": 0}, "tle": {"line1": "1 30548U 99025AKN 25359.51512936  .00005106  00000+0  20682-2 0  9992", "line2": "2 30548  99.6818 258.3315 0067663 299.9173 186.6500 14.26999076142778"}}, "geometry": {"type": "Point", "coordinates": [76.28827319824994, -16.149859915644033]}}, {"type": "Feature", "properties": {"norad_id": 30549, "name": "FENGYUN 1C DEB", "group": "fengyun-1c-debris", "lat": 79.69109990598713, "lon": -5.2136388545041745, "alt_km": 1001.9104829063153, "timestamp": "2025-12-26T05:31:12.784637+00:00", "meta": {"OBJECT_NAME": "FENGYUN 1C DEB", "OBJECT_ID": "1999-025AKP", "EPOCH": "2025-12-25T18:44:23.463168", "MEAN_MOTION": 13.98826717, "ECCENTRICITY": 0.02886018, "INCLINATION": 98.4798, "RA_OF_ASC_NODE": 119.2671, "ARG_OF_PERICENTER": 220.5698, "MEAN_ANOMALY": 137.3638, "EPHEMERIS_TYPE": 0, "CLASSIFICATION_TYPE": "U", "NORAD_CAT_ID": 30549, "ELEMENT_SET_NO": 999, "REV_AT_EPOCH": 95476, "BSTAR": 0.0027182869, "MEAN_MOTION_DOT": 5.559e-05, "MEAN_MOTION_DDOT": 0}, "tle": {"line1": "1 30549U 99025AKP 25359.78082712  .00005559  00000+0  27183-2 0  9991", "line2": "2 30549  98.4798 119.2671 0288601 220.5698 137.3638 13.98826717954766"}}, "geometry": {"type": "Point", "coordinates": [-5.2136388545041745, 79.69109990598713]}}, {"type": "Feature", "properties": {"norad_id": 30550, "name": "FENGYUN 1C DEB", "group": "fengyun-1c-debris", "lat": 74.59334658038941, "lon": -139.90519035646687, "alt_km": 972.9268797541326, "timestamp": "2025-12-26T05:31:12.784648+00:00", "meta": {"OBJECT_NAME": "FENGYUN 1C DEB", "OBJECT_ID": "1999-025AKQ", "EPOCH": "2025-12-25T15:35:41.474112", "MEAN_MOTION": 14.02503029, "ECCENTRICITY": 0.013086, "INCLINATION": 99.0535, "RA_OF_ASC_NODE": 254.8694, "ARG_OF_PERICENTER": 261.8153, "MEAN_ANOMALY": 127.6685, "EPHEMERIS_TYPE": 0, "CLASSIFICATION_TYPE": "U", "NORAD_CAT_ID": 30550, "ELEMENT_SET_NO": 999, "REV_AT_EPOCH": 95576, "BSTAR": 0.0028631, "MEAN_MOTION_DOT": 4.707e-05, "MEAN_MOTION_DDOT": 0}, "tle": {"line1": "1 30550U 99025AKQ 25359.64978558  .00004707  00000+0  28631-2 0  9993", "line2": "2 30550  99.0535 254.8694 0130860 261.8153 127.6685 14.02503029955761"}}, "geometry": {"type": "Point", "coordinates": [-139.90519035646687, 74.59334658038941]}}, {"type": "Feature", "properties": {"norad_id": 30552, "name": "FENGYUN 1C DEB", "group": "fengyun-1c-debris", "lat": 66.86777591010187, "lon": -25.989805163977817, "alt_km": 704.911699467184, "timestamp": "2025-12-26T05:31:12.784658+00:00", "meta": {"OBJECT_NAME": "FENGYUN 1C DEB", "OBJECT_ID": "1999-025AKS", "EPOCH": "2025-12-24T15:03:01.244736", "MEAN_MOTION": 14.55048111, "ECCENTRICITY": 0.00152789, "INCLINATION": 98.8348, "RA_OF_ASC_NODE": 130.9662, "ARG_OF_PERICENTER": 219.1119, "MEAN_ANOMALY": 140.8972, "EPHEMERIS_TYPE": 0, "CLASSIFICATION_TYPE": "U", "NORAD_CAT_ID": 30552, "ELEMENT_SET_NO": 999, "REV_AT_EPOCH": 97825, "BSTAR": 0.0031733759, "MEAN_MOTION_DOT": 0.00013676, "MEAN_MOTION_DDOT": 0}, "tle": {"line1": "1 30552U 99025AKS 25358.62709774  .00013676  00000+0  31734-2 0  9997", "line2": "2 30552  98.8348 130.9662 0015278 219.1119 140.8972 14.55048111978253"}}, "geometry": {"type": "Point", "coordinates": [-25.989805163977817, 66.86777591010187]}}, {"type": "Feature", "properties": {"norad_id": 30553, "name": "FENGYUN 1C DEB", "group": "fengyun-1c-debris", "lat": -56.662636237410986, "lon": 110.92437772255307, "alt_km": 672.3243353170974, "timestamp": "2025-12-26T05:31:12.784668+00:00", "meta": {"OBJECT_NAME": "FENGYUN 1C DEB", "OBJECT_ID": "1999-025AKT", "EPOCH": "2025-12-25T05:19:30.146016", "MEAN_MOTION": 14.72754459, "ECCENTRICITY": 0.0019072, "INCLINATION": 99.1296, "RA_OF_ASC_NODE": 95.6424, "ARG_OF_PERICENTER": 113.9078, "MEAN_ANOMALY": 246.4127, "EPHEMERIS_TYPE": 0, "CLASSIFICATION_TYPE": "U", "NORAD_CAT_ID": 30553, "ELEMENT_SET_NO": 999, "REV_AT_EPOCH": 98657, "BSTAR": 0.0035218, "MEAN_MOTION_DOT": 0.00022567, "MEAN_MOTION_DDOT": 0}, "tle": {"line1": "1 30553U 99025AKT 25359.22187669  .00022567  00000+0  35218-2 0  9998", "line2": "2 30553  99.1296  95.6424 0019072 113.9078 246.4127 14.72754459986571"}}, "geometry": {"type": "Point", "coordinates": [110.92437772255307, -56.662636237410986]}}, {"type": "Feature", "properties": {"norad_id": 30555, "name": "FENGYUN 1C DEB", "group": "fengyun-1c-debris", "lat": 75.67093109575397, "lon": -89.25555944350937, "alt_km": 835.6445277444536, "timestamp": "2025-12-26T05:31:12.784678+00:00", "meta": {"OBJECT_NAME": "FENGYUN 1C DEB", "OBJECT_ID": "1999-025AKV", "EPOCH": "2025-12-25T17:48:03.565152", "MEAN_MOTION": 14.2087793, "ECCENTRICITY": 0.00433452, "INCLINATION": 98.7559, "RA_OF_ASC_NODE": 53.1504, "ARG_OF_PERICENTER": 233.9323, "MEAN_ANOMALY": 251.4699, "EPHEMERIS_TYPE": 0, "CLASSIFICATION_TYPE": "U", "NORAD_CAT_ID": 30555, "ELEMENT_SET_NO": 999, "REV_AT_EPOCH": 97120, "BSTAR": 0.0013797258, "MEAN_MOTION_DOT": 2.969e-05, "MEAN_MOTION_DDOT": 0}, "tle": {"line1": "1 30555U 99025AKV 25359.74170793  .00002969  00000+0  13797-2 0  9999", "line2": "2 30555  98.7559  53.1504 0043345 233.9323 251.4699 14.20877930971201"}}, "geometry": {"type": "Point", "coordinates": [-89.25555944350937, 75.67093109575397]}}, {"type": "Feature", "properties": {"norad_id": 30556, "name": "FENGYUN 1C DEB", "group": "fengyun-1c-debris", "lat": 22.915180308276092, "lon": -10.771383202571219, "alt_km": 938.4318192528599, "timestamp": "2025-12-26T05:31:12.784688+00:00", "meta": {"OBJECT_NAME": "FENGYUN 1C DEB", "OBJECT_ID": "1999-025AKW", "EPOCH": "2025-12-25T11:17:10.819968", "MEAN_MOTION": 14.01374716, "ECCENTRICITY": 0.0068769, "INCLINATION": 98.7809, "RA_OF_ASC_NODE": 352.244, "ARG_OF_PERICENTER": 201.7203, "MEAN_ANOMALY": 310.879, "EPHEMERIS_TYPE": 0, "CLASSIFICATION_TYPE": "U", "NORAD_CAT_ID": 30556, "ELEMENT_SET_NO": 999, "REV_AT_EPOCH": 96435, "BSTAR": 0.0001858, "MEAN_MOTION_DOT": 2.44e-06, "MEAN_MOTION_DDOT": 0}, "tle": {"line1": "1 30556U 99025AKW 25359.47026412  .00000244  00000+0  18580-3 0  9998", "line2": "2 30556  98.7809 352.2440 0068769 201.7203 310.8790 14.01374716964352"}}, "geometry": {"type": "Point", "coordinates": [-10.771383202571219, 22.915180308276092]}}, {"type": "Feature", "properties": {"norad_id": 30557, "name": "FENGYUN 1C DEB", "group": "fengyun-1c-debris", "lat": -65.45398617678939, "lon": -134.8218303384015, "alt_km": 832.9239307756507, "timestamp": "2025-12-26T05:31:12.784698+00:00", "meta": {"OBJECT_NAME": "FENGYUN 1C DEB", "OBJECT_ID": "1999-025AKX", "EPOCH": "2025-12-22T16:57:14.652576", "MEAN_MOTION": 14.10841924, "ECCENTRICITY": 0.00687056, "INCLINATION": 98.9195, "RA_OF_ASC_NODE": 61.7935, "ARG_OF_PERICENTER": 204.7549, "MEAN_ANOMALY": 155.032, "EPHEMERIS_TYPE": 0, "CLASSIFICATION_TYPE": "U", "NORAD_CAT_ID": 30557, "ELEMENT_SET_NO": 999, "REV_AT_EPOCH": 96441, "BSTAR": 0.0012107904, "MEAN_MOTION_DOT": 2.174e-05, "MEAN_MOTION_DDOT": 0}, "tle": {"line1": "1 30557U 99025AKX 25356.70641959  .00002174  00000+0  12108-2 0  9994", "line2": "2 30557  98.9195  61.7935 0068705 204.7549 155.0320 14.10841924964415"}}, "geometry": {"type": "Point", "coordinates": [-134.8218303384015, -65.45398617678939]}}]}